{
  "type": "FeatureCollection",
  "features": [
    {
      "type": "Feature",
      "properties": {
        "norad_id": 66566,
        "name": "STARLINK-35871",
        "group": "last-30-days",
        "lat": 28.04995680394093,
        "lon": 137.2718511658458,
        "alt_km": 410.70251099697543,
        "timestamp": "2025-12-15T22:44:27.659903+00:00",
        "meta_object_name": "STARLINK-35871",
        "meta_object_id": "2025-268K",
        "meta_epoch": "2025-12-15T08:38:26.493504",
        "meta_mean_motion": 15.50599824,
        "meta_eccentricity": 0.00011341,
        "meta_inclination": 42.9995,
        "meta_ra_of_asc_node": 105.8331,
        "meta_arg_of_pericenter": 281.9473,
        "meta_mean_anomaly": 78.126,
        "meta_ephemeris_type": 0,
        "meta_classification_type": "U",
        "meta_norad_cat_id": 66566,
        "meta_element_set_no": 999,
        "meta_rev_at_epoch": 503,
        "meta_bstar": 0.00084594013,
        "meta_mean_motion_dot": 0.00049637,
        "meta_mean_motion_ddot": 0,
        "tle_line1": "1 66566U 25268K   25349.36002886  .00049637  00000+0  84594-3 0  9999",
        "tle_line2": "2 66566  42.9995 105.8331 0001134 281.9473  78.1260 15.50599824  5033"
      },
      "geometry": {
        "type": "Point",
        "coordinates": [
          137.2718511658458,
          28.04995680394093
        ]
      }
    },
    {
      "type": "Feature",
      "properties": {
        "norad_id": 66567,
        "name": "STARLINK-35825",
        "group": "last-30-days",
        "lat": 29.143190492533396,
        "lon": 139.145757911392,
        "alt_km": 410.4936458390748,
        "timestamp": "2025-12-15T22:44:27.659913+00:00",
        "meta_object_name": "STARLINK-35825",
        "meta_object_id": "2025-268L",
        "meta_epoch": "2025-12-15T08:37:56.851392",
        "meta_mean_motion": 15.50623817,
        "meta_eccentricity": 0.00011793,
        "meta_inclination": 42.9985,
        "meta_ra_of_asc_node": 105.8308,
        "meta_arg_of_pericenter": 279.9072,
        "meta_mean_anomaly": 80.1655,
        "meta_ephemeris_type": 0,
        "meta_classification_type": "U",
        "meta_norad_cat_id": 66567,
        "meta_element_set_no": 999,
        "meta_rev_at_epoch": 503,
        "meta_bstar": 0.00096193206,
        "meta_mean_motion_dot": 0.00056589,
        "meta_mean_motion_ddot": 0,
        "tle_line1": "1 66567U 25268L   25349.35968578  .00056589  00000+0  96193-3 0  9990",
        "tle_line2": "2 66567  42.9985 105.8308 0001179 279.9072  80.1655 15.50623817  5039"
      },
      "geometry": {
        "type": "Point",
        "coordinates": [
          139.145757911392,
          29.143190492533396
        ]
      }
    },
    {
      "type": "Feature",
      "properties": {
        "norad_id": 66568,
        "name": "STARLINK-35803",
        "group": "last-30-days",
        "lat": 30.17227413042969,
        "lon": 140.988210975486,
        "alt_km": 410.4273235540559,
        "timestamp": "2025-12-15T22:44:27.659926+00:00",
        "meta_object_name": "STARLINK-35803",
        "meta_object_id": "2025-268M",
        "meta_epoch": "2025-12-15T08:37:27.263712",
        "meta_mean_motion": 15.50619028,
        "meta_eccentricity": 0.00015359,
        "meta_inclination": 42.9985,
        "meta_ra_of_asc_node": 105.8272,
        "meta_arg_of_pericenter": 284.2143,
        "meta_mean_anomaly": 75.8546,
        "meta_ephemeris_type": 0,
        "meta_classification_type": "U",
        "meta_norad_cat_id": 66568,
        "meta_element_set_no": 999,
        "meta_rev_at_epoch": 503,
        "meta_bstar": 0.0009807731,
        "meta_mean_motion_dot": 0.00057704,
        "meta_mean_motion_ddot": 0,
        "tle_line1": "1 66568U 25268M   25349.35934333  .00057704  00000+0  98077-3 0  9996",
        "tle_line2": "2 66568  42.9985 105.8272 0001535 284.2143  75.8546 15.50619028  5033"
      },
      "geometry": {
        "type": "Point",
        "coordinates": [
          140.988210975486,
          30.17227413042969
        ]
      }
    },
    {
      "type": "Feature",
      "properties": {
        "norad_id": 66569,
        "name": "STARLINK-35835",
        "group": "last-30-days",
        "lat": 31.210774289938684,
        "lon": 142.94198214720655,
        "alt_km": 409.8764556087772,
        "timestamp": "2025-12-15T22:44:27.659940+00:00",
        "meta_object_name": "STARLINK-35835",
        "meta_object_id": "2025-268N",
        "meta_epoch": "2025-12-15T08:36:57.163680",
        "meta_mean_motion": 15.5063437,
        "meta_eccentricity": 7.857e-05,
        "meta_inclination": 42.9978,
        "meta_ra_of_asc_node": 105.8262,
        "meta_arg_of_pericenter": 298.6378,
        "meta_mean_anomaly": 61.4403,
        "meta_ephemeris_type": 0,
        "meta_classification_type": "U",
        "meta_norad_cat_id": 66569,
        "meta_element_set_no": 999,
        "meta_rev_at_epoch": 503,
        "meta_bstar": 0.00088229415,
        "meta_mean_motion_dot": 0.00051864,
        "meta_mean_motion_ddot": 0,
        "tle_line1": "1 66569U 25268N   25349.35899495  .00051864  00000+0  88229-3 0  9995",
        "tle_line2": "2 66569  42.9978 105.8262 0000785 298.6378  61.4403 15.50634370  5030"
      },
      "geometry": {
        "type": "Point",
        "coordinates": [
          142.94198214720655,
          31.210774289938684
        ]
      }
    },
    {
      "type": "Feature",
      "properties": {
        "norad_id": 66570,
        "name": "STARLINK-35834",
        "group": "last-30-days",
        "lat": 32.20262466030938,
        "lon": 144.89611908877023,
        "alt_km": 410.0037888170109,
        "timestamp": "2025-12-15T22:44:27.659951+00:00",
        "meta_object_name": "STARLINK-35834",
        "meta_object_id": "2025-268P",
        "meta_epoch": "2025-12-15T00:52:40.868832",
        "meta_mean_motion": 15.50600715,
        "meta_eccentricity": 0.00015357,
        "meta_inclination": 42.9997,
        "meta_ra_of_asc_node": 107.705,
        "meta_arg_of_pericenter": 288.6097,
        "meta_mean_anomaly": 71.4596,
        "meta_ephemeris_type": 0,
        "meta_classification_type": "U",
        "meta_norad_cat_id": 66570,
        "meta_element_set_no": 999,
        "meta_rev_at_epoch": 498,
        "meta_bstar": 0.00097129925,
        "meta_mean_motion_dot": 0.00057101,
        "meta_mean_motion_ddot": 0,
        "tle_line1": "1 66570U 25268P   25349.03658413  .00057101  00000+0  97130-3 0  9996",
        "tle_line2": "2 66570  42.9997 107.7050 0001535 288.6097  71.4596 15.50600715  4983"
      },
      "geometry": {
        "type": "Point",
        "coordinates": [
          144.89611908877023,
          32.20262466030938
        ]
      }
    },
    {
      "type": "Feature",
      "properties": {
        "norad_id": 66571,
        "name": "STARLINK-35836",
        "group": "last-30-days",
        "lat": 33.11986355109143,
        "lon": 146.8176060700873,
        "alt_km": 409.28501620301995,
        "timestamp": "2025-12-15T22:44:27.659962+00:00",
        "meta_object_name": "STARLINK-35836",
        "meta_object_id": "2025-268Q",
        "meta_epoch": "2025-12-15T08:35:58.357248",
        "meta_mean_motion": 15.50629225,
        "meta_eccentricity": 3.589e-05,
        "meta_inclination": 42.9949,
        "meta_ra_of_asc_node": 105.8207,
        "meta_arg_of_pericenter": 355.699,
        "meta_mean_anomaly": 4.3866,
        "meta_ephemeris_type": 0,
        "meta_classification_type": "U",
        "meta_norad_cat_id": 66571,
        "meta_element_set_no": 999,
        "meta_rev_at_epoch": 503,
        "meta_bstar": 0.00090980586,
        "meta_mean_motion_dot": 0.00053493,
        "meta_mean_motion_ddot": 0,
        "tle_line1": "1 66571U 25268Q   25349.35831432  .00053493  00000+0  90981-3 0  9993",
        "tle_line2": "2 66571  42.9949 105.8207 0000358 355.6990   4.3866 15.50629225  5032"
      },
      "geometry": {
        "type": "Point",
        "coordinates": [
          146.8176060700873,
          33.11986355109143
        ]
      }
    },
    {
      "type": "Feature",
      "properties": {
        "norad_id": 66572,
        "name": "STARLINK-35870",
        "group": "last-30-days",
        "lat": 34.033820049160276,
        "lon": 148.82645767674146,
        "alt_km": 409.3058221062265,
        "timestamp": "2025-12-15T22:44:27.659972+00:00",
        "meta_object_name": "STARLINK-35870",
        "meta_object_id": "2025-268R",
        "meta_epoch": "2025-12-15T08:35:28.701312",
        "meta_mean_motion": 15.50627319,
        "meta_eccentricity": 1.163e-05,
        "meta_inclination": 42.996,
        "meta_ra_of_asc_node": 105.819,
        "meta_arg_of_pericenter": 312.0939,
        "meta_mean_anomaly": 47.9911,
        "meta_ephemeris_type": 0,
        "meta_classification_type": "U",
        "meta_norad_cat_id": 66572,
        "meta_element_set_no": 999,
        "meta_rev_at_epoch": 503,
        "meta_bstar": 0.00085192961,
        "meta_mean_motion_dot": 0.00050043,
        "meta_mean_motion_ddot": 0,
        "tle_line1": "1 66572U 25268R   25349.35797108  .00050043  00000+0  85193-3 0  9992",
        "tle_line2": "2 66572  42.9960 105.8190 0000116 312.0939  47.9911 15.50627319  5035"
      },
      "geometry": {
        "type": "Point",
        "coordinates": [
          148.82645767674146,
          34.033820049160276
        ]
      }
    }
  ]
}